IRIDIUM 57              
1 25273U 98019B   24205.67823868  .00000924  00000+0  31584-3 0  9995
2 25273  86.3952 282.8367 0002248  93.5858 266.5596 14.35296337377654
IRIDIUM 63              
1 25286U 98021B   24205.47885928  .00000934  00000+0  31611-3 0  9997
2 25286  86.3978 219.8216 0002098  92.1486 267.9951 14.35843644376663
IRIDIUM 69              
1 25319U 98026A   24205.37101230  .00001142  00000+0  35577-3 0  9992
2 25319  86.3960 234.1419 0003917  59.4446 300.7139 14.40095845375727
IRIDIUM 71              
1 25320U 98026B   24205.43274519  .00001019  00000+0  31476-3 0  9999
2 25320  86.3962 228.8701 0004449  91.1943 268.9765 14.40401481376257
IRIDIUM 73              
1 25344U 98032C   24206.41287509  .00001447  00000+0  36360-3 0  9996
2 25344  86.4451 185.8536 0002724  77.4925 282.6584 14.50652214383327
IRIDIUM 82              
1 25467U 98051A   24206.22966768  .00020134  00000+0  96848-3 0  9994
2 25467  86.3740 268.1802 0126117  84.7892 276.7724 15.11802177374087
